NORAD_CAT_ID,OBJECT_NAME,OBJECT_TYPE,EPOCH,MEAN_MOTION,ECCENTRICITY,INCLINATION,RA_OF_ASC_NODE,ARG_OF_PERICENTER,MEAN_ANOMALY,BSTAR,MEAN_MOTION_DOT,MEAN_MOTION_DDOT,TLE_LINE0,TLE_LINE1,TLE_LINE2,SEMIMAJOR_AXIS,PERIOD,APOGEE,PERIGEE,DECAYED
52313.0,STARLINK-3749,PAYLOAD,2023-08-14 00:52:55,15.08833277,0.0001046,53.2168,342.8964,75.0955,285.0153,-6.8552e-05,-1.378e-05,0.0,0 STARLINK-3749,1 52313U 22041BE  23226.03675358 -.00001378  00000-0 -68552-4 0  9996,2 52313  53.2168 342.8964 0001046  75.0955 285.0153 15.08833277 74165,6917.901,95.438,540.49,539.042,0.0
52313.0,STARLINK-3749,PAYLOAD,2023-08-14 12:00:37,15.08839176,9.21e-05,53.2175,340.8187,89.1423,270.9674,9.1538e-05,1.169e-05,0.0,0 STARLINK-3749,1 52313U 22041BE  23226.50043252  .00001169  00000-0  91538-4 0  9996,2 52313  53.2175 340.8187 0000921  89.1423 270.9674 15.08839176 74238,6917.883,95.438,540.385,539.111,0.0
52313.0,STARLINK-3749,PAYLOAD,2023-08-15 16:37:33,15.08851387,9.34e-05,53.218,335.4655,83.5328,276.5771,0.00022631,3.317e-05,0.0,0 STARLINK-3749,1 52313U 22041BE  23227.69274788  .00003317  00000-0  22631-3 0  9991,2 52313  53.2180 335.4655 0000934  83.5328 276.5771 15.08851387 74418,6917.846,95.437,540.357,539.064,0.0
52313.0,STARLINK-3749,PAYLOAD,2023-08-16 00:34:29,15.08839693,0.0001457,53.2172,333.9774,89.5437,270.5722,4.0851e-07,-2.81e-06,0.0,0 STARLINK-3749,1 52313U 22041BE  23228.02394792 -.00000281  00000-0  40851-6 0  9992,2 52313  53.2172 333.9774 0001457  89.5437 270.5722 15.08839693 74463,6917.881,95.438,540.754,538.738,0.0
52313.0,STARLINK-3749,PAYLOAD,2023-08-17 09:57:35,15.08845844,0.0001522,53.2165,327.7321,93.1127,267.0039,9.5042e-05,1.225e-05,0.0,0 STARLINK-3749,1 52313U 22041BE  23229.41499247  .00001225  00000-0  95042-4 0  9995,2 52313  53.2165 327.7321 0001522  93.1127 267.0039 15.08845844 74674,6917.863,95.437,540.78,538.675,0.0
52313.0,STARLINK-3749,PAYLOAD,2023-08-18 01:51:26,15.08838789,0.0001233,53.2164,324.7598,106.7676,253.3451,8.6078e-05,1.082e-05,0.0,0 STARLINK-3749,1 52313U 22041BE  23230.07739457  .00001082  00000-0  86078-4 0  9999,2 52313  53.2164 324.7598 0001233 106.7676 253.3451 15.08838789 74772,6917.884,95.438,540.602,538.896,0.0
52313.0,STARLINK-3749,PAYLOAD,2023-08-19 09:39:09,15.08843296,0.0001032,53.2168,318.8151,91.7086,268.4024,0.00013345,1.837e-05,0.0,0 STARLINK-3749,1 52313U 22041BE  23231.40219443  .00001837  00000-0  13345-3 0  9999,2 52313  53.2168 318.8151 0001032  91.7086 268.4024 15.08843296 74974,6917.87,95.437,540.449,539.021,0.0
52313.0,STARLINK-3749,PAYLOAD,2023-08-20 11:05:20,15.08839217,0.0001099,53.2163,314.0574,97.9426,262.1691,0.00012309,1.672e-05,0.0,0 STARLINK-3749,1 52313U 22041BE  23232.46203815  .00001672  00000-0  12309-3 0  9998,2 52313  53.2163 314.0574 0001099  97.9426 262.1691 15.08839217 75133,6917.883,95.438,540.508,538.988,0.0
52313.0,STARLINK-3749,PAYLOAD,2023-08-21 12:31:30,15.08844742,0.0001122,53.2162,309.2999,94.1343,265.9778,0.00018465,2.652e-05,0.0,0 STARLINK-3749,1 52313U 22041BE  23233.52187722  .00002652  00000-0  18465-3 0  9992,2 52313  53.2162 309.2999 0001122  94.1343 265.9778 15.08844742 75296,6917.866,95.437,540.507,538.955,0.0
52313.0,STARLINK-3749,PAYLOAD,2023-08-22 12:22:17,15.08845773,0.0001139,53.2158,304.8396,91.7575,268.3548,0.00026484,3.93e-05,0.0,0 STARLINK-3749,1 52313U 22041BE  23234.51547868  .00003930  00000-0  26484-3 0  9993,2 52313  53.2158 304.8396 0001139  91.7575 268.3548 15.08845773 75445,6917.863,95.437,540.516,538.94,0.0
52313.0,STARLINK-3749,PAYLOAD,2023-08-23 12:13:04,15.08846263,0.0001249,53.2161,300.38,78.2693,281.8439,0.00019629,2.838e-05,0.0,0 STARLINK-3749,1 52313U 22041BE  23235.50907870  .00002838  00000-0  19629-3 0  9995,2 52313  53.2161 300.3800 0001249  78.2693 281.8439 15.08846263 75593,6917.861,95.437,540.59,538.862,0.0
52313.0,STARLINK-3749,PAYLOAD,2023-08-24 20:00:47,15.08829201,0.0001238,53.2163,294.433,69.8524,290.2601,-0.0001184,-2.171e-05,0.0,0 STARLINK-3749,1 52313U 22041BE  23236.83388764 -.00002171  00000-0 -11840-3 0  9996,2 52313  53.2163 294.4330 0001238  69.8524 290.2601 15.08829201 75793,6917.913,95.438,540.635,538.922,0.0
52313.0,STARLINK-3749,PAYLOAD,2023-08-24 23:11:33,15.08830763,7.92e-05,53.2178,293.8348,103.342,256.7661,-0.00010022,-1.882e-05,0.0,0 STARLINK-3749,1 52313U 22041BE  23236.96636567 -.00001882  00000-0 -10022-3 0  9996,2 52313  53.2178 293.8348 0000792 103.3420 256.7661 15.08830763 75815,6917.909,95.438,540.322,539.226,0.0
52313.0,STARLINK-3749,PAYLOAD,2023-08-25 10:19:15,15.08844615,0.0001246,53.216,291.7554,79.6469,280.4663,0.00013864,1.92e-05,0.0,0 STARLINK-3749,1 52313U 22041BE  23237.43004033  .00001920  00000-0  13864-3 0  9994,2 52313  53.2160 291.7554 0001246  79.6469 280.4663 15.08844615 75889,6917.866,95.437,540.593,538.869,0.0
52313.0,STARLINK-3749,PAYLOAD,2023-08-26 10:10:03,15.08834914,0.000124,53.2172,287.2967,69.4235,290.689,8.6376e-05,1.087e-05,0.0,0 STARLINK-3749,1 52313U 22041BE  23238.42364773  .00001087  00000-0  86376-4 0  9997,2 52313  53.2172 287.2967 0001240  69.4235 290.6890 15.08834914 76036,6917.896,95.438,540.619,538.903,0.0
52313.0,STARLINK-3749,PAYLOAD,2023-08-27 03:39:17,15.08841748,0.0001292,53.2158,284.0224,89.5338,270.5802,9.7807e-05,1.269e-05,0.0,0 STARLINK-3749,1 52313U 22041BE  23239.15228303  .00001269  00000-0  97807-4 0  9999,2 52313  53.2158 284.0224 0001292  89.5338 270.5802 15.08841748 76140,6917.875,95.437,540.634,538.846,0.0
52313.0,STARLINK-3749,PAYLOAD,2023-08-27 22:43:55,15.08836603,0.0001316,53.2165,280.4557,93.0051,267.1092,0.00012517,1.705e-05,0.0,0 STARLINK-3749,1 52313U 22041BE  23239.94716549  .00001705  00000-0  12517-3 0  9999,2 52313  53.2165 280.4557 0001316  93.0051 267.1092 15.08836603 76266,6917.891,95.438,540.666,538.845,0.0
52313.0,STARLINK-3749,PAYLOAD,2023-08-28 09:51:37,15.08831926,0.0001316,53.2161,278.3733,90.3344,269.7799,6.7272e-05,7.83e-06,0.0,0 STARLINK-3749,1 52313U 22041BE  23240.41085170  .00000783  00000-0  67272-4 0  9996,2 52313  53.2161 278.3733 0001316  90.3344 269.7799 15.08831926 76332,6917.905,95.438,540.68,538.86,0.0
52313.0,STARLINK-3749,PAYLOAD,2023-08-28 19:23:56,15.08837797,0.0001317,53.2157,276.588,87.1602,272.9541,6.7124e-05,7.8e-06,0.0,0 STARLINK-3749,1 52313U 22041BE  23240.80828851  .00000780  00000-0  67124-4 0  9993,2 52313  53.2157 276.5880 0001317  87.1602 272.9541 15.08837797 76391,6917.887,95.438,540.663,538.841,0.0
52313.0,STARLINK-3749,PAYLOAD,2023-08-29 09:42:24,15.08839105,0.0001402,53.2159,273.9122,89.5335,270.5817,4.0201e-05,3.52e-06,0.0,0 STARLINK-3749,1 52313U 22041BE  23241.40444914  .00000352  00000-0  40201-4 0  9996,2 52313  53.2159 273.9122 0001402  89.5335 270.5817 15.08839105 76482,6917.883,95.438,540.718,538.778,0.0
52313.0,STARLINK-3749,PAYLOAD,2023-08-30 19:05:30,15.08841341,0.0001431,53.2159,267.6672,84.7624,275.3531,9.4606e-05,1.218e-05,0.0,0 STARLINK-3749,1 52313U 22041BE  23242.79548925  .00001218  00000-0  94606-4 0  9996,2 52313  53.2159 267.6672 0001431  84.7624 275.3531 15.08841341 76696,6917.876,95.437,540.731,538.751,0.0
52313.0,STARLINK-3749,PAYLOAD,2023-08-31 01:27:02,15.08840936,0.0001434,53.2158,266.4775,85.5932,274.5224,0.00010906,1.448e-05,0.0,0 STARLINK-3749,1 52313U 22041BE  23243.06044936  .00001448  00000-0  10906-3 0  9995,2 52313  53.2158 266.4775 0001434  85.5932 274.5224 15.08840936 76734,6917.878,95.437,540.735,538.751,0.0
52313.0,STARLINK-3749,PAYLOAD,2023-09-01 07:39:22,15.08843864,0.000144,53.2156,260.8272,85.8141,274.3016,8.4722e-05,1.061e-05,0.0,0 STARLINK-3749,1 52313U 22041BE  23244.31900778  .00001061  00000-0  84722-4 0  9998,2 52313  53.2156 260.8272 0001440  85.8141 274.3016 15.08843864 76925,6917.869,95.437,540.73,538.737,0.0
52313.0,STARLINK-3749,PAYLOAD,2023-09-02 10:40:55,15.0884265,0.000164,53.2135,255.771,92.1327,267.9853,6.9136e-05,8.13e-06,0.0,0 STARLINK-3749,1 52313U 22041BE  23245.44508736  .00000813  00000-0  69136-4 0  9997,2 52313  53.2135 255.7710 0001640  92.1327 267.9853 15.08842650 77099,6917.872,95.437,540.872,538.603,0.0
52313.0,STARLINK-3749,PAYLOAD,2023-09-03 07:20:56,15.08842582,0.000148,53.2129,251.9044,91.8899,268.2262,9.2641e-05,1.187e-05,0.0,0 STARLINK-3749,1 52313U 22041BE  23246.30620684  .00001187  00000-0  92641-4 0  9992,2 52313  53.2129 251.9044 0001480  91.8899 268.2262 15.08842582 77229,6917.872,95.437,540.761,538.714,0.0
52313.0,STARLINK-3749,PAYLOAD,2023-09-03 16:53:15,15.08852095,0.0001361,53.2153,250.1215,93.5074,266.6073,-0.00019079,-3.324e-05,0.0,0 STARLINK-3749,1 52313U 22041BE  23246.70364588 -.00003324  00000-0 -19079-3 0  9994,2 52313  53.2153 250.1215 0001361  93.5074 266.6073 15.08852095 77287,6917.843,95.437,540.65,538.767,0.0
52313.0,STARLINK-3749,PAYLOAD,2023-09-04 10:22:30,15.08845802,0.0001444,53.216,246.8515,101.0821,259.0334,-0.00014318,-2.566e-05,0.0,0 STARLINK-3749,1 52313U 22041BE  23247.43229240 -.00002566  00000-0 -14318-3 0  9998,2 52313  53.2160 246.8515 0001444 101.0821 259.0334 15.08845802 77393,6917.863,95.437,540.727,538.729,0.0
52313.0,STARLINK-3749,PAYLOAD,2023-09-04 16:44:03,15.08832311,0.000139,53.2161,245.662,94.6268,265.4883,4.8088e-05,4.77e-06,0.0,0 STARLINK-3749,1 52313U 22041BE  23247.69725766  .00000477  00000-0  48088-4 0  9999,2 52313  53.2161 245.6620 0001390  94.6268 265.4883 15.08832311 77436,6917.904,95.438,540.73,538.807,0.0
52313.0,STARLINK-3749,PAYLOAD,2023-09-05 00:40:58,15.08833727,0.0001388,53.2161,244.1751,94.9545,265.1605,1.9874e-05,2.8e-07,0.0,0 STARLINK-3749,1 52313U 22041BE  23248.02845931  .00000028  00000-0  19874-4 0  9997,2 52313  53.2161 244.1751 0001388  94.9545 265.1605 15.08833727 77489,6917.9,95.438,540.725,538.804,0.0
52313.0,STARLINK-3749,PAYLOAD,2023-09-06 00:31:45,15.08834059,0.0001357,53.2162,239.7144,97.8581,262.2565,0.00010406,1.368e-05,0.0,0 STARLINK-3749,1 52313U 22041BE  23249.02206009  .00001368  00000-0  10406-3 0  9994,2 52313  53.2162 239.7144 0001357  97.8581 262.2565 15.08834059 77633,6917.899,95.438,540.702,538.825,0.0
